{
  "type": "FeatureCollection",
  "name": "Corridor_Alignment_Scenario_A_Original",
  "crs": {
    "type": "name",
    "properties": {
      "name": "urn:ogc:def:crs:OGC:1.3:CRS84"
    }
  },
  "features": [
    {
      "type": "Feature",
      "properties": {
        "id": "SCN-A",
        "name": "Scenario A: Original Direct Alignment",
        "corridor_code": "NH-753G-EXP-A",
        "design_speed_kmph": 100,
        "length_km": 34.8,
        "planned_lanes": 4,
        "right_of_way_m": 60,
        "description": "Shortest geometric alignment connecting Western Agrologistics Hub to Dharwad Ring Road.",
        "alignment_type": "Direct Lowland Transect"
      },
      "geometry": {
        "type": "LineString",
        "coordinates": [
          [
            74.885,
            15.582
          ],
          [
            74.92,
            15.61
          ],
          [
            74.955,
            15.635
          ],
          [
            74.99,
            15.66
          ],
          [
            75.035,
            15.69
          ],
          [
            75.075,
            15.715
          ],
          [
            75.115,
            15.748
          ]
        ]
      }
    }
  ]
}