{
  "type": "FeatureCollection",
  "name": "Corridor_Alignment_Scenario_B_Shifted_Ridge",
  "crs": {
    "type": "name",
    "properties": {
      "name": "urn:ogc:def:crs:OGC:1.3:CRS84"
    }
  },
  "features": [
    {
      "type": "Feature",
      "properties": {
        "id": "SCN-B",
        "name": "Scenario B: Northern Agro-Ecological Bypass",
        "corridor_code": "NH-753G-EXP-B",
        "design_speed_kmph": 100,
        "length_km": 38.6,
        "planned_lanes": 4,
        "right_of_way_m": 60,
        "description": "Shifted along the arid pediment plateau. Circumvents Malaprabha flood retention basin and high-yield sugarcane tracts.",
        "alignment_type": "Agro-Ecological Bypass"
      },
      "geometry": {
        "type": "LineString",
        "coordinates": [
          [
            74.885,
            15.582
          ],
          [
            74.91,
            15.625
          ],
          [
            74.945,
            15.668
          ],
          [
            74.985,
            15.702
          ],
          [
            75.03,
            15.725
          ],
          [
            75.078,
            15.735
          ],
          [
            75.115,
            15.748
          ]
        ]
      }
    }
  ]
}